ONEWEB-0066             
1 45424U 20020A   23238.48743561  .00000606  00000+0  16743-2 0  9993
2 45424  87.8906 224.7991 0002367  98.2189 261.9207 13.11417427168247
ONEWEB-0067             
1 45425U 20020B   23238.51179972 -.00000008  00000+0 -58111-4 0  9992
2 45425  87.8901 224.7701 0001739  93.1591 266.9736 13.11414268168304
ONEWEB-0080             
1 45426U 20020C   23238.46198249 -.00000425  00000+0 -12343-2 0  9993
2 45426  87.8910 224.8066 0002389  94.5450 265.5951 13.11417906168262
ONEWEB-0090             
1 45427U 20020D   23238.40266298  .00000310  00000+0  83829-3 0  9997
2 45427  87.8903 224.8003 0002168  88.8476 271.2901 13.11417095168229
ONEWEB-0061             
1 45428U 20020E   23238.51073736  .00000055  00000+0  12044-3 0  9990
2 45428  87.8903 224.7782 0002001  89.8000 270.3358 13.11414849168199
ONEWEB-0081             
1 45429U 20020F   23238.49167149  .00000637  00000+0  17606-2 0  9994
2 45429  87.8905 224.8015 0002015  94.8814 265.2544 13.11418005168307
ONEWEB-0069             
1 45430U 20020G   23238.48106762  .00000424  00000+0  11596-2 0  9995
2 45430  87.8899 224.7978 0002250  88.8479 271.2906 13.11419171168235
ONEWEB-0031             
1 45431U 20020H   23238.45350461 -.00000492  00000+0 -14243-2 0  9999
2 45431  87.8909 224.7955 0002075  88.4360 271.7005 13.11414929168212
